LANDSAT 8
1 39084U 13008A   20209.08962113  .00000026  00000-0  15813-4 0  9999
2 39084  98.2247 278.2954 0001560  98.5509 261.5870 14.57107245396477
LANDSAT 8
1 39084U 13008A   20209.08962113  .00000026  00000-0  15813-4 0  9999
2 39084  98.2247 278.2954 0001560  98.5509 261.5870 14.57107245396477
LANDSAT 8
1 39084U 13008A   20209.08962113  .00000026  00000-0  15813-4 0  9999
2 39084  98.2247 278.2954 0001560  98.5509 261.5870 14.57107245396477
LANDSAT 8
1 39084U 13008A   20209.08962113  .00000026  00000-0  15813-4 0  9999
2 39084  98.2247 278.2954 0001560  98.5509 261.5870 14.57107245396477
39084 LANDSAT 8
1 39084U 13008A   20034.53177737  .00000052  00000-0  21542-4 0  9990
2 39084  98.1990 106.2967 0001247  89.8025 270.3325 14.57119322371052
LANDSAT 8
1 39084U 13008A   20209.08962113  .00000026  00000-0  15813-4 0  9999
2 39084  98.2247 278.2954 0001560  98.5509 261.5870 14.57107245396477
ISS (ZARYA)
1 25544U 98067A   20208.81898250 -.00001223  00000-0 -13780-4 0  9996
2 25544  51.6445 152.3082 0000916 163.1489 218.7089 15.49504233238167
